[{"OBJECT_NAME":"STARLINK-5840","OBJECT_ID":"2023-094P","EPOCH":"2026-03-09T22:00:01.999584","MEAN_MOTION":15.11885564,"ECCENTRICITY":0.00012482,"INCLINATION":43.0005,"RA_OF_ASC_NODE":28.3812,"ARG_OF_PERICENTER":257.3238,"MEAN_ANOMALY":59.0319,"EPHEMERIS_TYPE":0,"CLASSIFICATION_TYPE":"U","NORAD_CAT_ID":57231,"ELEMENT_SET_NO":999,"REV_AT_EPOCH":567,"BSTAR":0.002870067,"MEAN_MOTION_DOT":0.00050118,"MEAN_MOTION_DDOT":0},{"OBJECT_NAME":"OBJECT F","OBJECT_ID":"2025-055F","EPOCH":"2026-03-09T23:18:16.432128","MEAN_MOTION":15.14826081,"ECCENTRICITY":0.00132444,"INCLINATION":97.6376,"RA_OF_ASC_NODE":208.0739,"ARG_OF_PERICENTER":110.0651,"MEAN_ANOMALY":250.2008,"EPHEMERIS_TYPE":0,"CLASSIFICATION_TYPE":"U","NORAD_CAT_ID":63296,"ELEMENT_SET_NO":999,"REV_AT_EPOCH":5397,"BSTAR":0.00069816497,"MEAN_MOTION_DOT":0.00012945,"MEAN_MOTION_DDOT":0}]
